OBJECT_NAME,OBJECT_ID,EPOCH,MEAN_MOTION,ECCENTRICITY,INCLINATION,RA_OF_ASC_NODE,ARG_OF_PERICENTER,MEAN_ANOMALY,EPHEMERIS_TYPE,CLASSIFICATION_TYPE,NORAD_CAT_ID,ELEMENT_SET_NO,REV_AT_EPOCH,BSTAR,MEAN_MOTION_DOT,MEAN_MOTION_DDOT
STARLINK-37909,2026-135W,2026-07-07T01:26:34.519200,15.80917415,.00014816,97.2835,216.2870,140.4426,219.6950,0,U,69566,999,340,.13464807E-2,.267059E-2,0
STARLINK-37934,2026-135X,2026-07-07T10:38:05.764992,15.81011723,.00032614,97.2845,216.6838,125.2579,234.8995,0,U,69567,999,346,.14681327E-2,.293381E-2,0
STARLINK-37938,2026-135Y,2026-07-07T18:00:02.998944,15.73822650,.000149,97.2852,217.0066,95.8648,207.2576,0,U,69568,999,461,-.2141E-1,-.2622498E-1,0
STARLINK-37924,2026-135Z,2026-07-07T18:06:23.383584,15.80850857,.0000777,97.2851,217.0247,60.8099,299.3247,0,U,69569,999,351,.13772E-2,.272508E-2,0
SHIJIAN-31 (SJ-31),2026-136A,2026-07-07T06:18:55.186272,1.92221837,.6940525,63.4845,354.0116,171.8139,212.3449,0,U,69570,999,47,0,.266E-5,0
GUOWANG OBJECT A,2026-137A,2026-07-07T11:59:25.435680,13.89812313,.00125615,49.9993,174.5302,292.8938,67.0634,0,U,69572,999,284,-.29075424E-4,-.182E-5,0
GUOWANG OBJECT B,2026-137B,2026-07-07T08:28:09.716736,13.89804031,.00118638,50.0020,175.0859,291.3397,68.6235,0,U,69573,999,283,-.65527367E-4,-.227E-5,0
GUOWANG OBJECT C,2026-137C,2026-07-07T11:53:41.495424,13.89814786,.00119055,49.9955,174.4945,293.5437,66.4211,0,U,69574,999,285,.4094342E-5,-.141E-5,0
GUOWANG OBJECT D,2026-137D,2026-07-07T15:19:10.307136,13.89827506,.0011098,49.9951,173.9146,292.5440,67.4283,0,U,69575,999,287,-.17304E-4,-.167E-5,0
GUOWANG OBJECT E,2026-137E,2026-07-07T11:50:40.223904,13.89825253,.00112312,50.0032,174.5043,295.1696,64.8037,0,U,69576,999,285,-.68481122E-4,-.231E-5,0
GUOWANG OBJECT F,2026-137F,2026-07-07T11:49:26.590368,13.89809671,.00108362,50.0023,174.4976,294.9267,65.0505,0,U,69577,999,285,-.63623987E-4,-.225E-5,0
GUOWANG OBJECT G,2026-137G,2026-07-07T11:48:09.500832,13.89794637,.00108281,49.9951,174.4735,294.6672,65.3098,0,U,69578,999,285,-.78595388E-4,-.243E-5,0
GUOWANG OBJECT H,2026-137H,2026-06-25T11:38:14.756064,13.92076941,.0010122,49.9967,222.2731,259.8752,100.1006,0,U,69579,999,118,.1427E-3,.37E-6,0
GUOWANG OBJECT J,2026-137J,2026-06-27T06:41:01.268160,13.91997107,.0011832,49.9961,215.0979,257.3150,102.6427,0,U,69580,999,143,.13174E-3,.22E-6,0
CENTISPACE-1 GROUP 05 OBJECT A,2026-138A,2026-07-07T13:12:21.943008,14.15471146,.0010819,55.1386,205.9785,327.0781,32.9519,0,U,69582,999,290,-.60465E-4,-.272E-5,0
CENTISPACE-1 GROUP 05 OBJECT B,2026-138B,2026-07-07T13:08:35.441952,14.15651743,.00097841,55.1382,205.9631,327.3115,32.7252,0,U,69583,999,290,-.96522919E-4,-.344E-5,0
CENTISPACE-1 GROUP 05 OBJECT C,2026-138C,2026-07-07T18:11:50.669376,14.15735731,.0009729,55.1388,205.1828,329.5102,30.5305,0,U,69584,999,293,-.10109E-3,-.353E-5,0
CENTISPACE-1 GROUP 05 OBJECT D,2026-138D,2026-07-07T18:08:13.515936,14.15922210,.0009309,55.1388,205.1610,328.5047,31.5369,0,U,69585,999,293,-.13723E-3,-.425E-5,0
CENTISPACE-1 GROUP 05 OBJECT E,2026-138E,2026-07-07T13:01:52.537152,14.15989162,.00090194,55.1382,205.9456,328.4222,31.6210,0,U,69586,999,290,-.13184806E-3,-.415E-5,0
CENTISPACE-1 GROUP 05 OBJECT F,2026-138F,2026-07-07T13:03:12.866688,14.15912238,.0008907,55.1385,205.9519,332.7839,27.2668,0,U,69587,999,290,-.13099306E-3,-.413E-5,0
CENTISPACE-1 GROUP 05 OBJECT G,2026-138G,2026-07-06T09:53:23.789760,14.16077285,.00080895,55.1388,210.1104,329.6669,30.3836,0,U,69588,999,274,-.15691084E-3,-.465E-5,0
SPACEMOBILE-008,2026-139A,2026-07-07T10:09:20.830464,15.12794365,.00046387,52.9937,170.6933,37.6326,322.4989,0,U,69589,999,304,.51460217E-4,.613E-5,0
SPACEMOBILE-009,2026-139B,2026-07-07T08:36:14.501952,15.12687590,.00048916,52.9928,170.9976,32.8078,327.3216,0,U,69590,999,303,.50952734E-4,.601E-5,0
SPACEMOBILE-010,2026-139C,2026-07-07T10:14:37.011264,15.12518827,.00047738,52.9932,170.7141,24.0576,336.0637,0,U,69591,999,305,.50380535E-4,.587E-5,0
KUIPER-00423,2026-140A,2026-07-07T15:32:47.726304,15.38474912,.0013488,51.8807,299.6069,241.2423,118.7210,0,U,69592,999,438,.33379E-3,.12529E-3,0
KUIPER-00428,2026-140B,2026-07-07T17:50:17.856672,15.36828451,.0007897,51.8807,299.4916,5.0917,355.0148,0,U,69593,999,439,.58678E-3,.21138E-3,0
KUIPER-00481,2026-140C,2026-07-07T15:44:38.448384,15.37840552,.0011105,51.8783,299.6565,249.6761,110.3033,0,U,69594,999,438,.33216E-3,.12193E-3,0
KUIPER-00490,2026-140D,2026-07-07T15:58:23.954592,15.37831000,.0006267,51.8769,299.7147,311.9924,48.0529,0,U,69595,999,438,.48849E-3,.18106E-3,0
